STARLINK-3136           
1 49443U 21104AM  26068.59968343 -.00004463  00000+0 -26245-3 0  9991
2 49443  53.2167 209.5242 0000782 104.6169 255.4910 15.08849863238908
LEMUR-2-STELLA          
1 60533U 24149BT  26068.72657350  .00013685  00000+0  85776-3 0  9992
2 60533  97.6764 150.9122 0001299  95.1117 265.0260 15.09464064 85488
